ATLAS CENTAUR R/B       
1 06155U 72065B   26062.13944294  .00001664  00000+0  22969-3 0  9996
2 06155  35.0029 344.1397 0034232 314.0816  45.7069 14.77665068840290
SL-8 R/B                
1 08459U 75112B   26062.17317728  .00000258  00000+0  93595-4 0  9993
2 08459  74.0615  30.8987 0014579 126.8083 233.4411 14.38198931630936
SL-3 R/B                
1 10114U 77057B   26062.11439141  .00014942  00000+0  31559-3 0  9998
2 10114  97.5757 233.7472 0006432 312.4081  47.6623 15.45270061667313
SEASAT 1                
1 10967U 78064A   26062.06308692  .00000273  00000+0  11475-3 0  9990
2 10967 108.0125 111.5944 0002152 288.3369  71.7543 14.46154152505556
SL-14 R/B               
1 11267U 79011B   26062.14175392  .00000666  00000+0  63144-4 0  9992
2 11267  82.5215 102.7856 0017615  80.5935 279.7275 14.91898884527802
SL-8 R/B                
1 11574U 79089B   26062.15635457  .00000279  00000+0  92482-4 0  9999
2 11574  74.0674 103.1389 0017122 276.4773  83.4434 14.42345443435161
SL-14 R/B               
1 11672U 80005B   26062.15046916  .00000683  00000+0  66594-4 0  9998
2 11672  82.5156 313.4385 0015602 179.6419 180.4814 14.90920937475516
SL-8 R/B                
1 12139U 81003B   26062.11247286  .00020716  00000+0  53549-3 0  9999
2 12139  82.9392 296.1055 0262721 201.4811 157.5238 15.10673845313688
SL-3 R/B                
1 12465U 81046B   26062.10018781  .00013912  00000+0  32548-3 0  9999
2 12465  81.2313 297.6564 0020118  44.5562 315.7294 15.41789085437413
SL-3 R/B                
1 12904U 81103B   26062.12927910  .00006925  00000+0  30811-3 0  9993
2 12904  81.1568 221.1275 0012539 310.6589  49.3551 15.21275610972239
SL-3 R/B                
1 13068U 82013B   26062.14011532  .00005574  00000+0  24191-3 0  9995
2 13068  81.1771 168.4450 0022304 199.7505 160.2865 15.21933387403355
SL-3 R/B                
1 13154U 82039B   26062.16306097  .00003119  00000+0  18849-3 0  9990
2 13154  81.1579 223.4863 0029898 345.7300  14.3077 15.10033286380656
