CCSDS_OMM_VERS = 2.0
CREATION_DATE  = 
ORIGINATOR     = 

OBJECT_NAME    = ATLAS CENTAUR R/B
OBJECT_ID      = 1972-065B
CENTER_NAME    = EARTH
REF_FRAME      = TEME
TIME_SYSTEM    = UTC
MEAN_ELEMENT_THEORY = SGP/SGP4

EPOCH          = 2026-03-03T03:20:47.870016
MEAN_MOTION    = 14.77665068
ECCENTRICITY   = .0034232
INCLINATION    = 35.0029
RA_OF_ASC_NODE = 344.1397
ARG_OF_PERICENTER = 314.0816
MEAN_ANOMALY   = 45.7069

EPHEMERIS_TYPE = 0
CLASSIFICATION_TYPE = U
NORAD_CAT_ID   = 6155
ELEMENT_SET_NO = 999
REV_AT_EPOCH   = 84029
BSTAR          = .22969E-3
MEAN_MOTION_DOT = .1664E-4
MEAN_MOTION_DDOT = 0

CCSDS_OMM_VERS = 2.0
CREATION_DATE  = 
ORIGINATOR     = 

OBJECT_NAME    = SL-8 R/B
OBJECT_ID      = 1975-112B
CENTER_NAME    = EARTH
REF_FRAME      = TEME
TIME_SYSTEM    = UTC
MEAN_ELEMENT_THEORY = SGP/SGP4

EPOCH          = 2026-03-03T04:09:22.516992
MEAN_MOTION    = 14.38198931
ECCENTRICITY   = .0014579
INCLINATION    = 74.0615
RA_OF_ASC_NODE = 30.8987
ARG_OF_PERICENTER = 126.8083
MEAN_ANOMALY   = 233.4411

EPHEMERIS_TYPE = 0
CLASSIFICATION_TYPE = U
NORAD_CAT_ID   = 8459
ELEMENT_SET_NO = 999
REV_AT_EPOCH   = 63093
BSTAR          = .93595E-4
MEAN_MOTION_DOT = .258E-5
MEAN_MOTION_DDOT = 0

CCSDS_OMM_VERS = 2.0
CREATION_DATE  = 
ORIGINATOR     = 

OBJECT_NAME    = SL-3 R/B
OBJECT_ID      = 1977-057B
CENTER_NAME    = EARTH
REF_FRAME      = TEME
TIME_SYSTEM    = UTC
MEAN_ELEMENT_THEORY = SGP/SGP4

EPOCH          = 2026-03-03T02:44:43.417824
MEAN_MOTION    = 15.45270061
ECCENTRICITY   = .0006432
INCLINATION    = 97.5757
RA_OF_ASC_NODE = 233.7472
ARG_OF_PERICENTER = 312.4081
MEAN_ANOMALY   = 47.6623

EPHEMERIS_TYPE = 0
CLASSIFICATION_TYPE = U
NORAD_CAT_ID   = 10114
ELEMENT_SET_NO = 999
REV_AT_EPOCH   = 66731
BSTAR          = .31559E-3
MEAN_MOTION_DOT = .14942E-3
MEAN_MOTION_DDOT = 0

CCSDS_OMM_VERS = 2.0
CREATION_DATE  = 
ORIGINATOR     = 

OBJECT_NAME    = SEASAT 1
OBJECT_ID      = 1978-064A
CENTER_NAME    = EARTH
REF_FRAME      = TEME
TIME_SYSTEM    = UTC
MEAN_ELEMENT_THEORY = SGP/SGP4

EPOCH          = 2026-03-03T01:30:50.709888
MEAN_MOTION    = 14.46154152
ECCENTRICITY   = .0002152
INCLINATION    = 108.0125
RA_OF_ASC_NODE = 111.5944
ARG_OF_PERICENTER = 288.3369
MEAN_ANOMALY   = 71.7543

EPHEMERIS_TYPE = 0
CLASSIFICATION_TYPE = U
NORAD_CAT_ID   = 10967
ELEMENT_SET_NO = 999
REV_AT_EPOCH   = 50555
BSTAR          = .11475E-3
MEAN_MOTION_DOT = .273E-5
MEAN_MOTION_DDOT = 0

CCSDS_OMM_VERS = 2.0
CREATION_DATE  = 
ORIGINATOR     = 

OBJECT_NAME    = SL-14 R/B
OBJECT_ID      = 1979-011B
CENTER_NAME    = EARTH
REF_FRAME      = TEME
TIME_SYSTEM    = UTC
MEAN_ELEMENT_THEORY = SGP/SGP4

EPOCH          = 2026-03-03T03:24:07.538688
MEAN_MOTION    = 14.91898884
ECCENTRICITY   = .0017615
INCLINATION    = 82.5215
RA_OF_ASC_NODE = 102.7856
ARG_OF_PERICENTER = 80.5935
MEAN_ANOMALY   = 279.7275

EPHEMERIS_TYPE = 0
CLASSIFICATION_TYPE = U
NORAD_CAT_ID   = 11267
ELEMENT_SET_NO = 999
REV_AT_EPOCH   = 52780
BSTAR          = .63144E-4
MEAN_MOTION_DOT = .666E-5
MEAN_MOTION_DDOT = 0

CCSDS_OMM_VERS = 2.0
CREATION_DATE  = 
ORIGINATOR     = 

OBJECT_NAME    = SL-8 R/B
OBJECT_ID      = 1979-089B
CENTER_NAME    = EARTH
REF_FRAME      = TEME
TIME_SYSTEM    = UTC
MEAN_ELEMENT_THEORY = SGP/SGP4

EPOCH          = 2026-03-03T03:45:09.034848
MEAN_MOTION    = 14.42345443
ECCENTRICITY   = .0017122
INCLINATION    = 74.0674
RA_OF_ASC_NODE = 103.1389
ARG_OF_PERICENTER = 276.4773
MEAN_ANOMALY   = 83.4434

EPHEMERIS_TYPE = 0
CLASSIFICATION_TYPE = U
NORAD_CAT_ID   = 11574
ELEMENT_SET_NO = 999
REV_AT_EPOCH   = 43516
BSTAR          = .92482E-4
MEAN_MOTION_DOT = .279E-5
MEAN_MOTION_DDOT = 0

CCSDS_OMM_VERS = 2.0
CREATION_DATE  = 
ORIGINATOR     = 

OBJECT_NAME    = SL-14 R/B
OBJECT_ID      = 1980-005B
CENTER_NAME    = EARTH
REF_FRAME      = TEME
TIME_SYSTEM    = UTC
MEAN_ELEMENT_THEORY = SGP/SGP4

EPOCH          = 2026-03-03T03:36:40.535424
MEAN_MOTION    = 14.90920937
ECCENTRICITY   = .0015602
INCLINATION    = 82.5156
RA_OF_ASC_NODE = 313.4385
ARG_OF_PERICENTER = 179.6419
MEAN_ANOMALY   = 180.4814

EPHEMERIS_TYPE = 0
CLASSIFICATION_TYPE = U
NORAD_CAT_ID   = 11672
ELEMENT_SET_NO = 999
REV_AT_EPOCH   = 47551
BSTAR          = .66594E-4
MEAN_MOTION_DOT = .683E-5
MEAN_MOTION_DDOT = 0

CCSDS_OMM_VERS = 2.0
CREATION_DATE  = 
ORIGINATOR     = 

OBJECT_NAME    = SL-8 R/B
OBJECT_ID      = 1981-003B
CENTER_NAME    = EARTH
REF_FRAME      = TEME
TIME_SYSTEM    = UTC
MEAN_ELEMENT_THEORY = SGP/SGP4

EPOCH          = 2026-03-03T02:41:57.655104
MEAN_MOTION    = 15.10673845
ECCENTRICITY   = .0262721
INCLINATION    = 82.9392
RA_OF_ASC_NODE = 296.1055
ARG_OF_PERICENTER = 201.4811
MEAN_ANOMALY   = 157.5238

EPHEMERIS_TYPE = 0
CLASSIFICATION_TYPE = U
NORAD_CAT_ID   = 12139
ELEMENT_SET_NO = 999
REV_AT_EPOCH   = 31368
BSTAR          = .53549E-3
MEAN_MOTION_DOT = .20716E-3
MEAN_MOTION_DDOT = 0

CCSDS_OMM_VERS = 2.0
CREATION_DATE  = 
ORIGINATOR     = 

OBJECT_NAME    = SL-3 R/B
OBJECT_ID      = 1981-046B
CENTER_NAME    = EARTH
REF_FRAME      = TEME
TIME_SYSTEM    = UTC
MEAN_ELEMENT_THEORY = SGP/SGP4

EPOCH          = 2026-03-03T02:24:16.226784
MEAN_MOTION    = 15.41789085
ECCENTRICITY   = .0020118
INCLINATION    = 81.2313
RA_OF_ASC_NODE = 297.6564
ARG_OF_PERICENTER = 44.5562
MEAN_ANOMALY   = 315.7294

EPHEMERIS_TYPE = 0
CLASSIFICATION_TYPE = U
NORAD_CAT_ID   = 12465
ELEMENT_SET_NO = 999
REV_AT_EPOCH   = 43741
BSTAR          = .32548E-3
MEAN_MOTION_DOT = .13912E-3
MEAN_MOTION_DDOT = 0

CCSDS_OMM_VERS = 2.0
CREATION_DATE  = 
ORIGINATOR     = 

OBJECT_NAME    = SL-3 R/B
OBJECT_ID      = 1981-103B
CENTER_NAME    = EARTH
REF_FRAME      = TEME
TIME_SYSTEM    = UTC
MEAN_ELEMENT_THEORY = SGP/SGP4

EPOCH          = 2026-03-03T03:06:09.714240
MEAN_MOTION    = 15.21275610
ECCENTRICITY   = .0012539
INCLINATION    = 81.1568
RA_OF_ASC_NODE = 221.1275
ARG_OF_PERICENTER = 310.6589
MEAN_ANOMALY   = 49.3551

EPHEMERIS_TYPE = 0
CLASSIFICATION_TYPE = U
NORAD_CAT_ID   = 12904
ELEMENT_SET_NO = 999
REV_AT_EPOCH   = 97223
BSTAR          = .30811E-3
MEAN_MOTION_DOT = .6925E-4
MEAN_MOTION_DDOT = 0

CCSDS_OMM_VERS = 2.0
CREATION_DATE  = 
ORIGINATOR     = 

OBJECT_NAME    = SL-3 R/B
OBJECT_ID      = 1982-013B
CENTER_NAME    = EARTH
REF_FRAME      = TEME
TIME_SYSTEM    = UTC
MEAN_ELEMENT_THEORY = SGP/SGP4

EPOCH          = 2026-03-03T03:21:45.963648
MEAN_MOTION    = 15.21933387
ECCENTRICITY   = .0022304
INCLINATION    = 81.1771
RA_OF_ASC_NODE = 168.4450
ARG_OF_PERICENTER = 199.7505
MEAN_ANOMALY   = 160.2865

EPHEMERIS_TYPE = 0
CLASSIFICATION_TYPE = U
NORAD_CAT_ID   = 13068
ELEMENT_SET_NO = 999
REV_AT_EPOCH   = 40335
BSTAR          = .24191E-3
MEAN_MOTION_DOT = .5574E-4
MEAN_MOTION_DDOT = 0

CCSDS_OMM_VERS = 2.0
CREATION_DATE  = 
ORIGINATOR     = 

OBJECT_NAME    = SL-3 R/B
OBJECT_ID      = 1982-039B
CENTER_NAME    = EARTH
REF_FRAME      = TEME
TIME_SYSTEM    = UTC
MEAN_ELEMENT_THEORY = SGP/SGP4

EPOCH          = 2026-03-03T03:54:48.467808
MEAN_MOTION    = 15.10033286
ECCENTRICITY   = .0029898
INCLINATION    = 81.1579
RA_OF_ASC_NODE = 223.4863
ARG_OF_PERICENTER = 345.7300
MEAN_ANOMALY   = 14.3077

EPHEMERIS_TYPE = 0
CLASSIFICATION_TYPE = U
NORAD_CAT_ID   = 13154
ELEMENT_SET_NO = 999
REV_AT_EPOCH   = 38065
BSTAR          = .18849E-3
MEAN_MOTION_DOT = .3119E-4
MEAN_MOTION_DDOT = 0

